NORAD_CAT_ID,OBJECT_NAME,OBJECT_TYPE,EPOCH,MEAN_MOTION,ECCENTRICITY,INCLINATION,RA_OF_ASC_NODE,ARG_OF_PERICENTER,MEAN_ANOMALY,BSTAR,MEAN_MOTION_DOT,MEAN_MOTION_DDOT,TLE_LINE0,TLE_LINE1,TLE_LINE2,SEMIMAJOR_AXIS,PERIOD,APOGEE,PERIGEE,DECAYED
53161.0,STARLINK-4055,PAYLOAD,2023-06-16 20:25:09,15.08856795,0.0001129,53.2177,319.1039,80.2097,279.9023,0.00019611,2.836e-05,0.0,0 STARLINK-4055,1 53161U 22083AF  23167.85080971  .00002836  00000-0  19611-3 0  9998,2 53161  53.2177 319.1039 0001129  80.2097 279.9023 15.08856795 50874,6917.829,95.436,540.475,538.913,0.0
53161.0,STARLINK-4055,PAYLOAD,2023-06-17 02:46:44,15.08828325,0.000154,53.2174,317.9125,79.5962,280.5204,-2.0844e-05,-6.2e-06,0.0,0 STARLINK-4055,1 53161U 22083AF  23168.11579625 -.00000620  00000-0 -20844-4 0  9999,2 53161  53.2174 317.9125 0001540  79.5962 280.5204 15.08828325 51544,6917.916,95.438,540.846,538.716,0.0
53161.0,STARLINK-4055,PAYLOAD,2023-06-17 10:43:41,15.08821796,0.0001214,53.2179,316.4283,102.6028,257.51,-0.00014144,-2.537e-05,0.0,0 STARLINK-4055,1 53161U 22083AF  23168.44700580 -.00002537  00000-0 -14144-3 0  9995,2 53161  53.2179 316.4283 0001214 102.6028 257.5100 15.08821796 50966,6917.936,95.439,540.641,538.961,0.0
53161.0,STARLINK-4055,PAYLOAD,2023-06-17 17:05:13,15.08825648,0.0001231,53.2179,315.2384,105.3264,254.7864,-0.00010935,-2.027e-05,0.0,0 STARLINK-4055,1 53161U 22083AF  23168.71196432 -.00002027  00000-0 -10935-3 0  9998,2 53161  53.2179 315.2384 0001231 105.3264 254.7864 15.08825648 51008,6917.924,95.438,540.641,538.938,0.0
53161.0,STARLINK-4055,PAYLOAD,2023-06-18 02:37:32,15.08831943,0.0001033,53.2185,313.4548,99.7339,260.377,-3.4078e-05,-8.3e-06,0.0,0 STARLINK-4055,1 53161U 22083AF  23169.10940115 -.00000830  00000-0 -34078-4 0  9992,2 53161  53.2185 313.4548 0001033  99.7339 260.3770 15.08831943 51695,6917.905,95.438,540.485,539.055,0.0
53161.0,STARLINK-4055,PAYLOAD,2023-06-18 18:31:22,15.08852539,0.0001069,53.2185,310.4826,108.0988,252.0121,3.3132e-05,2.4e-06,0.0,0 STARLINK-4055,1 53161U 22083AF  23169.77178641  .00000240  00000-0  33132-4 0  9995,2 53161  53.2185 310.4826 0001069 108.0988 252.0121 15.08852539 51797,6917.842,95.437,540.447,538.968,0.0
53161.0,STARLINK-4055,PAYLOAD,2023-06-19 08:49:51,15.08833229,8.59e-05,53.219,307.8052,103.1151,256.9938,0.00022676,3.322e-05,0.0,0 STARLINK-4055,1 53161U 22083AF  23170.36795327  .00003322  00000-0  22676-3 0  9992,2 53161  53.2190 307.8052 0000859 103.1151 256.9938 15.08833229 51882,6917.901,95.438,540.36,539.172,0.0
53161.0,STARLINK-4055,PAYLOAD,2023-06-19 15:11:23,15.08836149,0.000111,53.219,306.6166,100.4225,259.6892,0.00024979,3.689e-05,0.0,0 STARLINK-4055,1 53161U 22083AF  23170.63291263  .00003689  00000-0  24979-3 0  9996,2 53161  53.2190 306.6166 0001110 100.4225 259.6892 15.08836149 51296,6917.892,95.438,540.525,538.989,0.0
53161.0,STARLINK-4055,PAYLOAD,2023-06-20 08:40:38,15.08842775,0.0001029,53.219,303.3459,90.2445,269.8665,3.1314e-05,2.11e-06,0.0,0 STARLINK-4055,1 53161U 22083AF  23171.36155684  .00000211  00000-0  31314-4 0  9993,2 53161  53.2190 303.3459 0001029  90.2445 269.8665 15.08842775 51400,6917.872,95.437,540.449,539.025,0.0
53161.0,STARLINK-4055,PAYLOAD,2023-06-20 15:02:11,15.08836039,5.97e-05,53.2176,302.1571,107.6212,252.4846,0.00013449,1.853e-05,0.0,0 STARLINK-4055,1 53161U 22083AF  23171.62651676  .00001853  00000-0  13449-3 0  9995,2 53161  53.2176 302.1571 0000597 107.6212 252.4846 15.08836039 52079,6917.892,95.438,540.17,539.344,0.0
53161.0,STARLINK-4055,PAYLOAD,2023-06-21 13:17:34,15.08841613,8.36e-05,53.2191,297.9944,83.2163,276.8924,3.6881e-05,2.99e-06,0.0,0 STARLINK-4055,1 53161U 22083AF  23172.55387377  .00000299  00000-0  36881-4 0  9991,2 53161  53.2191 297.9944 0000836  83.2163 276.8924 15.08841613 51587,6917.875,95.437,540.319,539.162,0.0
53161.0,STARLINK-4055,PAYLOAD,2023-06-21 14:52:57,15.08843057,7.68e-05,53.2183,297.6959,92.6438,267.4643,5.7542e-05,6.28e-06,0.0,0 STARLINK-4055,1 53161U 22083AF  23172.62011171  .00000628  00000-0  57542-4 0  9998,2 53161  53.2183 297.6959 0000768  92.6438 267.4643 15.08843057 51593,6917.871,95.437,540.267,539.205,0.0
53161.0,STARLINK-4055,PAYLOAD,2023-06-22 14:43:44,15.08841687,8.09e-05,53.2164,293.2333,85.1495,274.9589,7.7357e-05,9.44e-06,0.0,0 STARLINK-4055,1 53161U 22083AF  23173.61371370  .00000944  00000-0  77357-4 0  9995,2 53161  53.2164 293.2333 0000809  85.1495 274.9589 15.08841687 52372,6917.875,95.437,540.3,539.181,0.0
53161.0,STARLINK-4055,PAYLOAD,2023-06-23 17:45:17,15.08855615,8.44e-05,53.2178,288.1789,81.8793,278.2295,0.00015983,2.258e-05,0.0,0 STARLINK-4055,1 53161U 22083AF  23174.73978124  .00002258  00000-0  15983-3 0  9995,2 53161  53.2178 288.1789 0000844  81.8793 278.2295 15.08855615 52544,6917.833,95.437,540.282,539.114,0.0
53161.0,STARLINK-4055,PAYLOAD,2023-06-24 00:06:50,15.08839711,9.84e-05,53.2175,286.9878,79.611,280.4993,1.5449e-05,-4.2e-07,0.0,0 STARLINK-4055,1 53161U 22083AF  23175.00475509 -.00000042  00000-0  15449-4 0  9993,2 53161  53.2175 286.9878 0000984  79.6110 280.4993 15.08839711 52582,6917.881,95.438,540.427,539.066,0.0
53161.0,STARLINK-4055,PAYLOAD,2023-06-24 08:03:47,15.08833113,9.39e-05,53.2175,285.5032,81.6032,278.5066,-1.7696e-05,-5.69e-06,0.0,0 STARLINK-4055,1 53161U 22083AF  23175.33596304 -.00000569  00000-0 -17696-4 0  9997,2 53161  53.2175 285.5032 0000939  81.6032 278.5066 15.08833113 52630,6917.901,95.438,540.416,539.117,0.0
53161.0,STARLINK-4055,PAYLOAD,2023-06-24 14:25:18,15.08861837,7.22e-05,53.2173,284.3137,59.8415,300.2648,-0.00023883,-4.089e-05,0.0,0 STARLINK-4055,1 53161U 22083AF  23175.60091191 -.00004089  00000-0 -23883-3 0  9996,2 53161  53.2173 284.3137 0000722  59.8415 300.2648 15.08861837 52670,6917.814,95.436,540.178,539.179,0.0
53161.0,STARLINK-4055,PAYLOAD,2023-06-24 23:57:38,15.08839398,8.46e-05,53.217,282.5295,71.0199,289.0885,3.5911e-05,2.84e-06,0.0,0 STARLINK-4055,1 53161U 22083AF  23175.99835808  .00000284  00000-0  35911-4 0  9996,2 53161  53.2170 282.5295 0000846  71.0199 289.0885 15.08839398 52735,6917.882,95.438,540.332,539.162,0.0
53161.0,STARLINK-4055,PAYLOAD,2023-06-25 15:51:28,15.0885314,8.89e-05,53.2181,279.5568,88.0303,272.0791,8.372e-05,1.045e-05,0.0,0 STARLINK-4055,1 53161U 22083AF  23176.66074825  .00001045  00000-0  83720-4 0  9992,2 53161  53.2181 279.5568 0000889  88.0303 272.0791 15.08853140 52838,6917.84,95.437,540.32,539.09,0.0
53161.0,STARLINK-4055,PAYLOAD,2023-06-25 23:48:25,15.08841113,0.0001088,53.2178,278.0689,88.8796,271.232,-8.0356e-05,-1.566e-05,0.0,0 STARLINK-4055,1 53161U 22083AF  23176.99195916 -.00001566  00000-0 -80356-4 0  9995,2 53161  53.2178 278.0689 0001088  88.8796 271.2320 15.08841113 52889,6917.877,95.437,540.495,538.989,0.0
53161.0,STARLINK-4055,PAYLOAD,2023-06-26 09:20:44,15.08828553,0.0001143,53.2182,276.2864,95.979,264.1333,8.2361e-05,1.023e-05,0.0,0 STARLINK-4055,1 53161U 22083AF  23177.38940744  .00001023  00000-0  82361-4 0  9990,2 53161  53.2182 276.2864 0001143  95.9790 264.1333 15.08828553 52949,6917.915,95.438,540.571,538.99,0.0
53161.0,STARLINK-4055,PAYLOAD,2023-06-27 10:46:54,15.08845092,9.38e-05,53.2178,271.528,99.0582,261.0517,0.00015971,2.255e-05,0.0,0 STARLINK-4055,1 53161U 22083AF  23178.44923774  .00002255  00000-0  15971-3 0  9992,2 53161  53.2178 271.5280 0000938  99.0582 261.0517 15.08845092 53105,6917.865,95.437,540.379,539.081,0.0
53161.0,STARLINK-4055,PAYLOAD,2023-06-28 10:37:41,15.08833647,0.0001081,53.2173,267.0677,81.0393,279.0721,0.0001037,1.363e-05,0.0,0 STARLINK-4055,1 53161U 22083AF  23179.44284693  .00001363  00000-0  10370-3 0  9990,2 53161  53.2173 267.0677 0001081  81.0393 279.0721 15.08833647 53256,6917.9,95.438,540.513,539.017,0.0
53161.0,STARLINK-4055,PAYLOAD,2023-06-29 12:03:51,15.08846884,9.09e-05,53.2177,262.3089,92.1649,267.9447,5.1816e-05,5.37e-06,0.0,0 STARLINK-4055,1 53161U 22083AF  23180.50267983  .00000537  00000-0  51816-4 0  9995,2 53161  53.2177 262.3089 0000909  92.1649 267.9447 15.08846884 53416,6917.859,95.437,540.353,539.096,0.0
53161.0,STARLINK-4055,PAYLOAD,2023-06-30 15:05:24,15.08846175,7.94e-05,53.2166,257.2533,76.6786,283.4295,9.6154e-05,1.243e-05,0.0,0 STARLINK-4055,1 53161U 22083AF  23181.62875767  .00001243  00000-0  96154-4 0  9993,2 53161  53.2166 257.2533 0000794  76.6786 283.4295 15.08846175 53587,6917.862,95.437,540.276,539.177,0.0
53161.0,STARLINK-4055,PAYLOAD,2023-07-01 08:34:40,15.08833828,9.88e-05,53.2176,253.9839,94.4381,265.6724,-2.0086e-05,-6.07e-06,0.0,0 STARLINK-4055,1 53161U 22083AF  23182.35741013 -.00000607  00000-0 -20086-4 0  9996,2 53161  53.2176 253.9839 0000988  94.4381 265.6724 15.08833828 53696,6917.899,95.438,540.448,539.081,0.0
53161.0,STARLINK-4055,PAYLOAD,2023-07-02 11:36:13,15.08843474,9.1e-05,53.2176,248.9287,89.2259,270.8837,0.00010048,1.312e-05,0.0,0 STARLINK-4055,1 53161U 22083AF  23183.48348444  .00001312  00000-0  10048-3 0  9990,2 53161  53.2176 248.9287 0000910  89.2259 270.8837 15.08843474 53868,6917.87,95.437,540.364,539.105,0.0
53161.0,STARLINK-4055,PAYLOAD,2023-07-03 13:02:23,15.08847197,8.86e-05,53.2159,244.1702,83.0378,277.0715,0.00020831,3.03e-05,0.0,0 STARLINK-4055,1 53161U 22083AF  23184.54332241  .00003030  00000-0  20831-3 0  9996,2 53161  53.2159 244.1702 0000886  83.0378 277.0715 15.08847197 54024,6917.858,95.437,540.336,539.11,0.0
53161.0,STARLINK-4055,PAYLOAD,2023-07-03 20:59:19,15.08838915,9.1e-05,53.216,242.6838,86.2429,273.8668,4.9356e-05,4.98e-06,0.0,0 STARLINK-4055,1 53161U 22083AF  23184.87452616  .00000498  00000-0  49356-4 0  9990,2 53161  53.2160 242.6838 0000910  86.2429 273.8668 15.08838915 54073,6917.884,95.438,540.378,539.119,0.0
53161.0,STARLINK-4055,PAYLOAD,2023-07-05 09:33:11,15.08839518,9.15e-05,53.2164,235.8435,79.5476,280.5619,4.5248e-05,4.32e-06,0.0,0 STARLINK-4055,1 53161U 22083AF  23186.39805045  .00000432  00000-0  45248-4 0  9991,2 53161  53.2164 235.8435 0000915  79.5476 280.5619 15.08839518 54303,6917.882,95.438,540.38,539.114,0.0
